<?xml version="1.0" encoding="UTF-8"?>
<ndm xmlns:xsi="http://www.w3.org/2001/XMLSchema-instance" xsi:noNamespaceSchemaLocation="https://sanaregistry.org/r/ndmxml_unqualified/ndmxml-2.0.0-master-2.0.xsd">
<omm id="CCSDS_OMM_VERS" version="2.0">
<header><CREATION_DATE/><ORIGINATOR/></header><body><segment><metadata><OBJECT_NAME>ORBCOMM FM20 [+]</OBJECT_NAME><OBJECT_ID>1998-046D</OBJECT_ID><CENTER_NAME>EARTH</CENTER_NAME><REF_FRAME>TEME</REF_FRAME><TIME_SYSTEM>UTC</TIME_SYSTEM><MEAN_ELEMENT_THEORY>SGP4</MEAN_ELEMENT_THEORY></metadata><data><meanElements><EPOCH>2023-09-18T05:49:27.464736</EPOCH><MEAN_MOTION>14.34387256</MEAN_MOTION><ECCENTRICITY>.0002541</ECCENTRICITY><INCLINATION>44.9961</INCLINATION><RA_OF_ASC_NODE>315.1029</RA_OF_ASC_NODE><ARG_OF_PERICENTER>250.3216</ARG_OF_PERICENTER><MEAN_ANOMALY>109.7357</MEAN_ANOMALY></meanElements><tleParameters><EPHEMERIS_TYPE>0</EPHEMERIS_TYPE><CLASSIFICATION_TYPE>U</CLASSIFICATION_TYPE><NORAD_CAT_ID>25416</NORAD_CAT_ID><ELEMENT_SET_NO>999</ELEMENT_SET_NO><REV_AT_EPOCH>31262</REV_AT_EPOCH><BSTAR>.44541E-3</BSTAR><MEAN_MOTION_DOT>.1124E-4</MEAN_MOTION_DOT><MEAN_MOTION_DDOT>0</MEAN_MOTION_DDOT></tleParameters></data></segment></body></omm>
<omm id="CCSDS_OMM_VERS" version="2.0">
<header><CREATION_DATE/><ORIGINATOR/></header><body><segment><metadata><OBJECT_NAME>ORBCOMM FM16 [-]</OBJECT_NAME><OBJECT_ID>1998-046E</OBJECT_ID><CENTER_NAME>EARTH</CENTER_NAME><REF_FRAME>TEME</REF_FRAME><TIME_SYSTEM>UTC</TIME_SYSTEM><MEAN_ELEMENT_THEORY>SGP4</MEAN_ELEMENT_THEORY></metadata><data><meanElements><EPOCH>2023-09-17T15:21:02.139840</EPOCH><MEAN_MOTION>14.35049870</MEAN_MOTION><ECCENTRICITY>.0004747</ECCENTRICITY><INCLINATION>44.9960</INCLINATION><RA_OF_ASC_NODE>315.1981</RA_OF_ASC_NODE><ARG_OF_PERICENTER>300.5399</ARG_OF_PERICENTER><MEAN_ANOMALY>59.4979</MEAN_ANOMALY></meanElements><tleParameters><EPHEMERIS_TYPE>0</EPHEMERIS_TYPE><CLASSIFICATION_TYPE>U</CLASSIFICATION_TYPE><NORAD_CAT_ID>25417</NORAD_CAT_ID><ELEMENT_SET_NO>999</ELEMENT_SET_NO><REV_AT_EPOCH>31263</REV_AT_EPOCH><BSTAR>.63847E-3</BSTAR><MEAN_MOTION_DOT>.1696E-4</MEAN_MOTION_DOT><MEAN_MOTION_DDOT>0</MEAN_MOTION_DDOT></tleParameters></data></segment></body></omm>
<omm id="CCSDS_OMM_VERS" version="2.0">
<header><CREATION_DATE/><ORIGINATOR/></header><body><segment><metadata><OBJECT_NAME>ORBCOMM FM15 [-]</OBJECT_NAME><OBJECT_ID>1998-046F</OBJECT_ID><CENTER_NAME>EARTH</CENTER_NAME><REF_FRAME>TEME</REF_FRAME><TIME_SYSTEM>UTC</TIME_SYSTEM><MEAN_ELEMENT_THEORY>SGP4</MEAN_ELEMENT_THEORY></metadata><data><meanElements><EPOCH>2023-09-17T11:38:05.790336</EPOCH><MEAN_MOTION>14.34816387</MEAN_MOTION><ECCENTRICITY>.0004153</ECCENTRICITY><INCLINATION>44.9993</INCLINATION><RA_OF_ASC_NODE>319.4691</RA_OF_ASC_NODE><ARG_OF_PERICENTER>298.8723</ARG_OF_PERICENTER><MEAN_ANOMALY>61.1707</MEAN_ANOMALY></meanElements><tleParameters><EPHEMERIS_TYPE>0</EPHEMERIS_TYPE><CLASSIFICATION_TYPE>U</CLASSIFICATION_TYPE><NORAD_CAT_ID>25418</NORAD_CAT_ID><ELEMENT_SET_NO>999</ELEMENT_SET_NO><REV_AT_EPOCH>31240</REV_AT_EPOCH><BSTAR>.62764E-3</BSTAR><MEAN_MOTION_DOT>.1656E-4</MEAN_MOTION_DOT><MEAN_MOTION_DDOT>0</MEAN_MOTION_DDOT></tleParameters></data></segment></body></omm>
<omm id="CCSDS_OMM_VERS" version="2.0">
<header><CREATION_DATE/><ORIGINATOR/></header><body><segment><metadata><OBJECT_NAME>ORBCOMM FM14 [-]</OBJECT_NAME><OBJECT_ID>1998-046G</OBJECT_ID><CENTER_NAME>EARTH</CENTER_NAME><REF_FRAME>TEME</REF_FRAME><TIME_SYSTEM>UTC</TIME_SYSTEM><MEAN_ELEMENT_THEORY>SGP4</MEAN_ELEMENT_THEORY></metadata><data><meanElements><EPOCH>2023-09-17T23:01:54.281856</EPOCH><MEAN_MOTION>14.34918367</MEAN_MOTION><ECCENTRICITY>.0003686</ECCENTRICITY><INCLINATION>44.9983</INCLINATION><RA_OF_ASC_NODE>316.5981</RA_OF_ASC_NODE><ARG_OF_PERICENTER>282.6844</ARG_OF_PERICENTER><MEAN_ANOMALY>133.2560</MEAN_ANOMALY></meanElements><tleParameters><EPHEMERIS_TYPE>0</EPHEMERIS_TYPE><CLASSIFICATION_TYPE>U</CLASSIFICATION_TYPE><NORAD_CAT_ID>25419</NORAD_CAT_ID><ELEMENT_SET_NO>999</ELEMENT_SET_NO><REV_AT_EPOCH>31265</REV_AT_EPOCH><BSTAR>.67526E-3</BSTAR><MEAN_MOTION_DOT>.1797E-4</MEAN_MOTION_DOT><MEAN_MOTION_DDOT>0</MEAN_MOTION_DDOT></tleParameters></data></segment></body></omm>
<omm id="CCSDS_OMM_VERS" version="2.0">
<header><CREATION_DATE/><ORIGINATOR/></header><body><segment><metadata><OBJECT_NAME>ORBCOMM FM13 [+]</OBJECT_NAME><OBJECT_ID>1998-046H</OBJECT_ID><CENTER_NAME>EARTH</CENTER_NAME><REF_FRAME>TEME</REF_FRAME><TIME_SYSTEM>UTC</TIME_SYSTEM><MEAN_ELEMENT_THEORY>SGP4</MEAN_ELEMENT_THEORY></metadata><data><meanElements><EPOCH>2023-09-17T21:26:20.929920</EPOCH><MEAN_MOTION>14.34401546</MEAN_MOTION><ECCENTRICITY>.0005598</ECCENTRICITY><INCLINATION>44.9997</INCLINATION><RA_OF_ASC_NODE>320.6474</RA_OF_ASC_NODE><ARG_OF_PERICENTER>294.4928</ARG_OF_PERICENTER><MEAN_ANOMALY>65.5335</MEAN_ANOMALY></meanElements><tleParameters><EPHEMERIS_TYPE>0</EPHEMERIS_TYPE><CLASSIFICATION_TYPE>U</CLASSIFICATION_TYPE><NORAD_CAT_ID>25420</NORAD_CAT_ID><ELEMENT_SET_NO>999</ELEMENT_SET_NO><REV_AT_EPOCH>31262</REV_AT_EPOCH><BSTAR>.51814E-3</BSTAR><MEAN_MOTION_DOT>.1331E-4</MEAN_MOTION_DOT><MEAN_MOTION_DDOT>0</MEAN_MOTION_DDOT></tleParameters></data></segment></body></omm>
<omm id="CCSDS_OMM_VERS" version="2.0">
<header><CREATION_DATE/><ORIGINATOR/></header><body><segment><metadata><OBJECT_NAME>ORBCOMM FM21 [-]</OBJECT_NAME><OBJECT_ID>1998-053A</OBJECT_ID><CENTER_NAME>EARTH</CENTER_NAME><REF_FRAME>TEME</REF_FRAME><TIME_SYSTEM>UTC</TIME_SYSTEM><MEAN_ELEMENT_THEORY>SGP4</MEAN_ELEMENT_THEORY></metadata><data><meanElements><EPOCH>2023-09-17T11:50:46.467168</EPOCH><MEAN_MOTION>14.34425800</MEAN_MOTION><ECCENTRICITY>.0001149</ECCENTRICITY><INCLINATION>45.0100</INCLINATION><RA_OF_ASC_NODE>46.6137</RA_OF_ASC_NODE><ARG_OF_PERICENTER>207.5630</ARG_OF_PERICENTER><MEAN_ANOMALY>152.5156</MEAN_ANOMALY></meanElements><tleParameters><EPHEMERIS_TYPE>0</EPHEMERIS_TYPE><CLASSIFICATION_TYPE>U</CLASSIFICATION_TYPE><NORAD_CAT_ID>25475</NORAD_CAT_ID><ELEMENT_SET_NO>999</ELEMENT_SET_NO><REV_AT_EPOCH>30545</REV_AT_EPOCH><BSTAR>.64874E-3</BSTAR><MEAN_MOTION_DOT>.1702E-4</MEAN_MOTION_DOT><MEAN_MOTION_DDOT>0</MEAN_MOTION_DDOT></tleParameters></data></segment></body></omm>
<omm id="CCSDS_OMM_VERS" version="2.0">
<header><CREATION_DATE/><ORIGINATOR/></header><body><segment><metadata><OBJECT_NAME>ORBCOMM FM22 [-]</OBJECT_NAME><OBJECT_ID>1998-053B</OBJECT_ID><CENTER_NAME>EARTH</CENTER_NAME><REF_FRAME>TEME</REF_FRAME><TIME_SYSTEM>UTC</TIME_SYSTEM><MEAN_ELEMENT_THEORY>SGP4</MEAN_ELEMENT_THEORY></metadata><data><meanElements><EPOCH>2023-09-17T16:21:22.021632</EPOCH><MEAN_MOTION>14.34775733</MEAN_MOTION><ECCENTRICITY>.0002682</ECCENTRICITY><INCLINATION>45.0100</INCLINATION><RA_OF_ASC_NODE>43.8035</RA_OF_ASC_NODE><ARG_OF_PERICENTER>237.2728</ARG_OF_PERICENTER><MEAN_ANOMALY>122.7860</MEAN_ANOMALY></meanElements><tleParameters><EPHEMERIS_TYPE>0</EPHEMERIS_TYPE><CLASSIFICATION_TYPE>U</CLASSIFICATION_TYPE><NORAD_CAT_ID>25476</NORAD_CAT_ID><ELEMENT_SET_NO>999</ELEMENT_SET_NO><REV_AT_EPOCH>30582</REV_AT_EPOCH><BSTAR>.71686E-3</BSTAR><MEAN_MOTION_DOT>.191E-4</MEAN_MOTION_DOT><MEAN_MOTION_DDOT>0</MEAN_MOTION_DDOT></tleParameters></data></segment></body></omm>
<omm id="CCSDS_OMM_VERS" version="2.0">
<header><CREATION_DATE/><ORIGINATOR/></header><body><segment><metadata><OBJECT_NAME>ORBCOMM FM23 [-]</OBJECT_NAME><OBJECT_ID>1998-053C</OBJECT_ID><CENTER_NAME>EARTH</CENTER_NAME><REF_FRAME>TEME</REF_FRAME><TIME_SYSTEM>UTC</TIME_SYSTEM><MEAN_ELEMENT_THEORY>SGP4</MEAN_ELEMENT_THEORY></metadata><data><meanElements><EPOCH>2023-09-17T17:33:43.297632</EPOCH><MEAN_MOTION>14.34401506</MEAN_MOTION><ECCENTRICITY>.0001981</ECCENTRICITY><INCLINATION>45.0101</INCLINATION><RA_OF_ASC_NODE>47.9273</RA_OF_ASC_NODE><ARG_OF_PERICENTER>230.4573</ARG_OF_PERICENTER><MEAN_ANOMALY>129.6099</MEAN_ANOMALY></meanElements><tleParameters><EPHEMERIS_TYPE>0</EPHEMERIS_TYPE><CLASSIFICATION_TYPE>U</CLASSIFICATION_TYPE><NORAD_CAT_ID>25477</NORAD_CAT_ID><ELEMENT_SET_NO>999</ELEMENT_SET_NO><REV_AT_EPOCH>30594</REV_AT_EPOCH><BSTAR>.64857E-3</BSTAR><MEAN_MOTION_DOT>.1701E-4</MEAN_MOTION_DOT><MEAN_MOTION_DDOT>0</MEAN_MOTION_DDOT></tleParameters></data></segment></body></omm>

</ndm>
