25416,ORBCOMM FM20,1998,100.39,45.0,+,45.0,Active,1,LEO,Eastern Range Airspace,ORBCOMM,Commercial,Communications,Pegasus,1 25416U 98046D   23261.24267899  .00001124  00000+0  44541-3 0  9994,2 25416  44.9961 315.1029 0002541 250.3216 109.7357 14.34387256312624,14.34387256,0.0002541,LEO
25417,ORBCOMM FM16,1998,100.35,-1.0,-,45.0,Inactive,0,LEO,Eastern Range Airspace,ORBCOMM,Unknown,Unknown,Pegasus,1 25417U 98046E   23260.63960810  .00001696  00000+0  63847-3 0  9994,2 25417  44.9960 315.1981 0004747 300.5399  59.4979 14.35049870312631,14.3504987,0.0004747,LEO
25418,ORBCOMM FM15,1998,100.36,45.0,-,45.0,Inactive,1,LEO,Eastern Range Airspace,ORBCOMM,Commercial,Communications,Pegasus,1 25418U 98046F   23260.48478924  .00001656  00000+0  62764-3 0  9991,2 25418  44.9993 319.4691 0004153 298.8723  61.1707 14.34816387312402,14.34816387,0.0004153,LEO
25419,ORBCOMM FM14,1998,100.35,45.0,-,45.0,Inactive,1,LEO,Eastern Range Airspace,ORBCOMM,Commercial,Communications,Pegasus,1 25419U 98046G   23260.95965604  .00001797  00000+0  67526-3 0  9997,2 25419  44.9983 316.5981 0003686 282.6844 133.2560 14.34918367312653,14.34918367,0.0003686,LEO
25420,ORBCOMM FM13,1998,100.39,45.0,+,45.0,Active,1,LEO,Eastern Range Airspace,ORBCOMM,Commercial,Communications,Pegasus,1 25420U 98046H   23260.89329780  .00001331  00000+0  51814-3 0  9998,2 25420  44.9997 320.6474 0005598 294.4928  65.5335 14.34401546312621,14.34401546,0.0005598,LEO
25475,ORBCOMM FM21,1998,100.39,45.0,-,45.01,Inactive,1,LEO,Eastern Range Airspace,ORBCOMM,Commercial,Communications,Pegasus,1 25475U 98053A   23260.49359337  .00001702  00000+0  64874-3 0  9995,2 25475  45.0100  46.6137 0001149 207.5630 152.5156 14.34425800305453,14.344258,0.0001149,LEO
25476,ORBCOMM FM22,1998,100.36,-1.0,-,45.01,Inactive,0,LEO,Eastern Range Airspace,ORBCOMM,Unknown,Unknown,Pegasus,1 25476U 98053B   23260.68150488  .00001910  00000+0  71686-3 0  9993,2 25476  45.0100  43.8035 0002682 237.2728 122.7860 14.34775733305826,14.34775733,0.0002682,LEO
25477,ORBCOMM FM23,1998,100.39,45.0,-,45.01,Inactive,1,LEO,Eastern Range Airspace,ORBCOMM,Commercial,Communications,Pegasus,1 25477U 98053C   23260.73175113  .00001701  00000+0  64857-3 0  9992,2 25477  45.0101  47.9273 0001981 230.4573 129.6099 14.34401506305948,14.34401506,0.0001981,LEO
